[{"OBJECT_NAME":"ONEWEB-0154","OBJECT_ID":"2021-025D","EPOCH":"2026-03-09T18:03:01.541088","MEAN_MOTION":13.13470747,"ECCENTRICITY":0.00017036,"INCLINATION":87.9037,"RA_OF_ASC_NODE":340.0032,"ARG_OF_PERICENTER":82.0379,"MEAN_ANOMALY":278.0943,"EPHEMERIS_TYPE":0,"CLASSIFICATION_TYPE":"U","NORAD_CAT_ID":48045,"ELEMENT_SET_NO":999,"REV_AT_EPOCH":24045,"BSTAR":0.0003886441,"MEAN_MOTION_DOT":1.55e-6,"MEAN_MOTION_DDOT":0},{"OBJECT_NAME":"FENGYUN 1C DEB","OBJECT_ID":"1999-025DPG","EPOCH":"2026-03-09T10:14:49.399296","MEAN_MOTION":13.42027482,"ECCENTRICITY":0.03516247,"INCLINATION":98.8832,"RA_OF_ASC_NODE":40.5423,"ARG_OF_PERICENTER":201.7738,"MEAN_ANOMALY":315.902,"EPHEMERIS_TYPE":0,"CLASSIFICATION_TYPE":"U","NORAD_CAT_ID":35200,"ELEMENT_SET_NO":999,"REV_AT_EPOCH":67066,"BSTAR":0.00030511092,"MEAN_MOTION_DOT":2.1e-6,"MEAN_MOTION_DDOT":0}]
